{
    "bodies": [
        {
            "name": "TNO-130",
            "mass": 0,
            "semi_major_axis": 194.43359375,
            "eccentricity": 0.8126953125,
            "inclination": 0.05539375067364816,
            "longitude_of_ascending_node": 4.709805017464713,
            "argument_of_perihelion": 3.6811371130933868,
            "mean_anomaly": 1.1440327012096887
        },
        {
            "name": "TNO-131",
            "mass": 0,
            "semi_major_axis": 194.775390625,
            "eccentricity": 0.8127929687500001,
            "inclination": 0.05581985644806083,
            "longitude_of_ascending_node": 0.6113160351838325,
            "argument_of_perihelion": 6.118320441639057,
            "mean_anomaly": 5.678612436837036
        },
        {
            "name": "TNO-132",
            "mass": 0,
            "semi_major_axis": 195.1171875,
            "eccentricity": 0.8128906250000001,
            "inclination": 0.05624596222247351,
            "longitude_of_ascending_node": 2.12919184600644,
            "argument_of_perihelion": 3.144974403872786,
            "mean_anomaly": 6.04636150538855
        },
        {
            "name": "TNO-133",
            "mass": 0,
            "semi_major_axis": 195.458984375,
            "eccentricity": 0.81298828125,
            "inclination": 0.05667206799688619,
            "longitude_of_ascending_node": 6.046010366716922,
            "argument_of_perihelion": 5.626227653845432,
            "mean_anomaly": 5.61721198799098
        },
        {
            "name": "TNO-134",
            "mass": 0,
            "semi_major_axis": 195.80078125,
            "eccentricity": 0.8130859375,
            "inclination": 0.05709817377129887,
            "longitude_of_ascending_node": 5.959563438428065,
            "argument_of_perihelion": 5.752029824903298,
            "mean_anomaly": 2.74878983674153
        },
        {
            "name": "TNO-135",
            "mass": 0,
            "semi_major_axis": 196.142578125,
            "eccentricity": 0.81318359375,
            "inclination": 0.05752427954571154,
            "longitude_of_ascending_node": 1.1158260298847873,
            "argument_of_perihelion": 4.4829443824172195,
            "mean_anomaly": 5.908833553603927
        },
        {
            "name": "TNO-136",
            "mass": 0,
            "semi_major_axis": 196.484375,
            "eccentricity": 0.8132812500000001,
            "inclination": 0.057950385320124226,
            "longitude_of_ascending_node": 6.104879281360375,
            "argument_of_perihelion": 2.869839866589987,
            "mean_anomaly": 3.5646987353597375
        },
        {
            "name": "TNO-137",
            "mass": 0,
            "semi_major_axis": 196.826171875,
            "eccentricity": 0.8133789062500001,
            "inclination": 0.0583764910945369,
            "longitude_of_ascending_node": 2.351484459231897,
            "argument_of_perihelion": 4.399426724973631,
            "mean_anomaly": 5.72955184093791
        },
        {
            "name": "TNO-138",
            "mass": 0,
            "semi_major_axis": 197.16796875,
            "eccentricity": 0.8134765625,
            "inclination": 0.05880259686894958,
            "longitude_of_ascending_node": 0.36872013334970166,
            "argument_of_perihelion": 5.822268701235572,
            "mean_anomaly": 3.3181516042318266
        },
        {
            "name": "TNO-139",
            "mass": 0,
            "semi_major_axis": 197.509765625,
            "eccentricity": 0.81357421875,
            "inclination": 0.05922870264336226,
            "longitude_of_ascending_node": 2.64092017986333,
            "argument_of_perihelion": 2.694990696852212,
            "mean_anomaly": 4.697412514888292
        },
        {
            "name": "TNO-140",
            "mass": 0,
            "semi_major_axis": 197.8515625,
            "eccentricity": 0.813671875,
            "inclination": 0.059654808417774936,
            "longitude_of_ascending_node": 2.0361450900402907,
            "argument_of_perihelion": 2.303908660017119,
            "mean_anomaly": 1.1818752977225493
        },
        {
            "name": "TNO-141",
            "mass": 0,
            "semi_major_axis": 198.193359375,
            "eccentricity": 0.8137695312500001,
            "inclination": 0.06008091419218761,
            "longitude_of_ascending_node": 1.336853561906824,
            "argument_of_perihelion": 3.985063542326327,
            "mean_anomaly": 2.973494357855789
        },
        {
            "name": "TNO-142",
            "mass": 0,
            "semi_major_axis": 198.53515625,
            "eccentricity": 0.8138671875000001,
            "inclination": 0.06050701996660029,
            "longitude_of_ascending_node": 5.575669984315039,
            "argument_of_perihelion": 4.015348170401826,
            "mean_anomaly": 3.32504051685053
        },
        {
            "name": "TNO-143",
            "mass": 0,
            "semi_major_axis": 198.876953125,
            "eccentricity": 0.81396484375,
            "inclination": 0.06093312574101297,
            "longitude_of_ascending_node": 0.4009129714047119,
            "argument_of_perihelion": 5.977700769997706,
            "mean_anomaly": 2.224582710404586
        },
        {
            "name": "TNO-144",
            "mass": 0,
            "semi_major_axis": 199.21875,
            "eccentricity": 0.8140625,
            "inclination": 0.06135923151542565,
            "longitude_of_ascending_node": 3.5362782703806275,
            "argument_of_perihelion": 0.16898601957047404,
            "mean_anomaly": 3.5847362340668534
        },
        {
            "name": "TNO-145",
            "mass": 0,
            "semi_major_axis": 199.560546875,
            "eccentricity": 0.81416015625,
            "inclination": 0.06178533728983832,
            "longitude_of_ascending_node": 0.035348866644988305,
            "argument_of_perihelion": 0.6029446335585312,
            "mean_anomaly": 1.3846144783715866
        },
        {
            "name": "TNO-146",
            "mass": 0,
            "semi_major_axis": 199.90234375,
            "eccentricity": 0.8142578125000001,
            "inclination": 0.062211443064251006,
            "longitude_of_ascending_node": 1.6371389138503671,
            "argument_of_perihelion": 4.276080191197325,
            "mean_anomaly": 3.1449778483901936
        },
        {
            "name": "TNO-147",
            "mass": 0,
            "semi_major_axis": 200.244140625,
            "eccentricity": 0.8143554687500001,
            "inclination": 0.06263754883866368,
            "longitude_of_ascending_node": 4.254650032113484,
            "argument_of_perihelion": 4.913658474699821,
            "mean_anomaly": 0.6018573347207833
        },
        {
            "name": "TNO-148",
            "mass": 0,
            "semi_major_axis": 200.5859375,
            "eccentricity": 0.814453125,
            "inclination": 0.06306365461307636,
            "longitude_of_ascending_node": 1.144793457324527,
            "argument_of_perihelion": 3.82416023443288,
            "mean_anomaly": 1.5400993171352864
        },
        {
            "name": "TNO-149",
            "mass": 0,
            "semi_major_axis": 200.927734375,
            "eccentricity": 0.81455078125,
            "inclination": 0.06348976038748903,
            "longitude_of_ascending_node": 2.6146064951396033,
            "argument_of_perihelion": 3.2874193890732673,
            "mean_anomaly": 0.9990642055190381
        },
        {
            "name": "TNO-150",
            "mass": 0,
            "semi_major_axis": 201.26953125,
            "eccentricity": 0.8146484375,
            "inclination": 0.06391586616190172,
            "longitude_of_ascending_node": 3.378751362515419,
            "argument_of_perihelion": 5.00863183839386,
            "mean_anomaly": 0.7441937347597651
        },
        {
            "name": "TNO-151",
            "mass": 0,
            "semi_major_axis": 201.611328125,
            "eccentricity": 0.8147460937500001,
            "inclination": 0.0643419719363144,
            "longitude_of_ascending_node": 5.719617847602355,
            "argument_of_perihelion": 4.1257552125624,
            "mean_anomaly": 3.963132548484445
        },
        {
            "name": "TNO-152",
            "mass": 0,
            "semi_major_axis": 201.953125,
            "eccentricity": 0.8148437500000001,
            "inclination": 0.06476807771072707,
            "longitude_of_ascending_node": 0.3216147241376653,
            "argument_of_perihelion": 4.746156030742839,
            "mean_anomaly": 4.605601742855758
        },
        {
            "name": "TNO-153",
            "mass": 0,
            "semi_major_axis": 202.294921875,
            "eccentricity": 0.81494140625,
            "inclination": 0.06519418348513975,
            "longitude_of_ascending_node": 2.9323994247201295,
            "argument_of_perihelion": 0.013099673867442608,
            "mean_anomaly": 5.319164834742643
        },
        {
            "name": "TNO-154",
            "mass": 0,
            "semi_major_axis": 202.63671875,
            "eccentricity": 0.8150390625,
            "inclination": 0.06562028925955243,
            "longitude_of_ascending_node": 4.969708218834821,
            "argument_of_perihelion": 4.753506450642394,
            "mean_anomaly": 5.7655181255031165
        },
        {
            "name": "TNO-155",
            "mass": 0,
            "semi_major_axis": 202.978515625,
            "eccentricity": 0.81513671875,
            "inclination": 0.0660463950339651,
            "longitude_of_ascending_node": 0.7269073586746003,
            "argument_of_perihelion": 5.849519346701397,
            "mean_anomaly": 1.961554535307353
        }
    ]
}